{"fetched_at":"2026-03-29T02:12:04Z","count":15717,"tles":[{"name":"COSMOS 2544 (759)","line1":"1 44850U 19088A   26082.62369789  .00000036  00000+0  00000+0 0  9992","line2":"2 44850  65.5174  76.5851 0015791 260.6166  99.2133  2.13102020 48890","category":"Other"}]}